start=new Date('2023-06-15T00:00:00.000Z').valueOf();
sats=[{"OBJECT_ID":"2020-019AC","GP_ID":"233942950","CENTER_NAME":"EARTH","DECAY_DATE":null,"PERIOD":"95.592","TLE_LINE1":"1 45386U 20019AC  23165.82278556  .00004434  00000-0  31638-3 0  9997","PERIAPSIS":"546.608","TIME_SYSTEM":"UTC","OBJECT_NAME":"STARLINK-1272","SITE":"AFETR","RA_OF_ASC_NODE":"310.7081","EPHEMERIS_TYPE":"0","REF_FRAME":"TEME","LAUNCH_DATE":"2020-03-18","OBJECT_TYPE":"PAYLOAD","INCLINATION":"53.0543","CLASSIFICATION_TYPE":"U","ELEMENT_SET_NO":"999","REV_AT_EPOCH":"17945","NORAD_CAT_ID":"45386","RCS_SIZE":"LARGE","MEAN_MOTION":"15.06394813","APOAPSIS":"547.851","FILE":"3933215","COUNTRY_CODE":"US","ARG_OF_PERICENTER":"90.6146","EPOCH":"2023-06-14T19:44:48.672384","MEAN_MOTION_DDOT":"0.0000000000000","MEAN_ANOMALY":"269.4946","BSTAR":"0.00031638000000","ECCENTRICITY":"0.00008970","TLE_LINE2":"2 45386  53.0543 310.7081 0000897  90.6146 269.4946 15.06394813179454","MEAN_ELEMENT_THEORY":"SGP4","MEAN_MOTION_DOT":"0.00004434","SEMIMAJOR_AXIS":"6925.364"},{"TLE_LINE1":"1 45387U 20019AD  23165.77855196 -.00001039  00000-0 -50847-4 0  9997","PERIOD":"95.593","DECAY_DATE":null,"CENTER_NAME":"EARTH","GP_ID":"233942700","OBJECT_ID":"2020-019AD","CLASSIFICATION_TYPE":"U","ELEMENT_SET_NO":"999","INCLINATION":"53.0543","LAUNCH_DATE":"2020-03-18","OBJECT_TYPE":"PAYLOAD","REF_FRAME":"TEME","EPHEMERIS_TYPE":"0","SITE":"AFETR","RA_OF_ASC_NODE":"310.9022","OBJECT_NAME":"STARLINK-1274","TIME_SYSTEM":"UTC","PERIAPSIS":"546.221","EPOCH":"2023-06-14T18:41:06.889344","ARG_OF_PERICENTER":"108.7258","COUNTRY_CODE":"US","APOAPSIS":"548.268","FILE":"3933215","MEAN_MOTION":"15.06389973","NORAD_CAT_ID":"45387","RCS_SIZE":"LARGE","REV_AT_EPOCH":"17944","SEMIMAJOR_AXIS":"6925.379","MEAN_MOTION_DOT":"-0.00001039","MEAN_ELEMENT_THEORY":"SGP4","TLE_LINE2":"2 45387  53.0543 310.9022 0001478 108.7258 251.3892 15.06389973179443","ECCENTRICITY":"0.00014780","BSTAR":"-0.00005084700000","MEAN_ANOMALY":"251.3892","MEAN_MOTION_DDOT":"0.0000000000000"},{"BSTAR":"0.00010242000000","ECCENTRICITY":"0.00010730","MEAN_MOTION_DOT":"0.00001244","SEMIMAJOR_AXIS":"6925.371","TLE_LINE2":"2 45388  53.0547 331.0443 0001073  93.1112 266.9999 15.06392734179164","MEAN_ELEMENT_THEORY":"SGP4","MEAN_ANOMALY":"266.9999","MEAN_MOTION_DDOT":"0.0000000000000","COUNTRY_CODE":"US","MEAN_MOTION":"15.06392734","FILE":"3933167","APOAPSIS":"547.979","ARG_OF_PERICENTER":"93.1112","EPOCH":"2023-06-14T17:55:59.983392","NORAD_CAT_ID":"45388","RCS_SIZE":"LARGE","REV_AT_EPOCH":"17916","REF_FRAME":"TEME","EPHEMERIS_TYPE":"0","CLASSIFICATION_TYPE":"U","ELEMENT_SET_NO":"999","LAUNCH_DATE":"2020-03-18","INCLINATION":"53.0547","OBJECT_TYPE":"PAYLOAD","TIME_SYSTEM":"UTC","OBJECT_NAME":"STARLINK-1280","PERIAPSIS":"546.493","SITE":"AFETR","RA_OF_ASC_NODE":"331.0443","DECAY_DATE":null,"OBJECT_ID":"2020-019AE","GP_ID":"233922906","CENTER_NAME":"EARTH","TLE_LINE1":"1 45388U 20019AE  23165.74722203  .00001244  00000-0  10242-3 0  9997","PERIOD":"95.593"},{"PERIOD":"95.593","TLE_LINE1":"1 45389U 20019AF  23165.79329969  .00018013  00000-0  12255-2 0  9992","CENTER_NAME":"EARTH","GP_ID":"233943701","OBJECT_ID":"2020-019AF","DECAY_DATE":null,"INCLINATION":"53.0535","LAUNCH_DATE":"2020-03-18","OBJECT_TYPE":"PAYLOAD","ELEMENT_SET_NO":"999","CLASSIFICATION_TYPE":"U","EPHEMERIS_TYPE":"0","REF_FRAME":"TEME","SITE":"AFETR","RA_OF_ASC_NODE":"310.8412","PERIAPSIS":"546.449","OBJECT_NAME":"STARLINK-1283","TIME_SYSTEM":"UTC","EPOCH":"2023-06-14T19:02:21.093216","ARG_OF_PERICENTER":"98.2004","FILE":"3933215","APOAPSIS":"548.057","MEAN_MOTION":"15.06386996","COUNTRY_CODE":"US","REV_AT_EPOCH":"17945","NORAD_CAT_ID":"45389","RCS_SIZE":"LARGE","MEAN_ELEMENT_THEORY":"SGP4","TLE_LINE2":"2 45389  53.0535 310.8412 0001161  98.2004 261.9116 15.06386996179458","SEMIMAJOR_AXIS":"6925.388","MEAN_MOTION_DOT":"0.00018013","ECCENTRICITY":"0.00011610","BSTAR":"0.00122550000000","MEAN_MOTION_DDOT":"0.0000000000000","MEAN_ANOMALY":"261.9116"},{"MEAN_MOTION_DDOT":"0.0000000000000","MEAN_ANOMALY":"267.6896","TLE_LINE2":"2 45390  53.0540 311.2536 0001065  92.4215 267.6896 15.06397172179435","MEAN_ELEMENT_THEORY":"SGP4","MEAN_MOTION_DOT":"0.00001119","SEMIMAJOR_AXIS":"6925.357","BSTAR":"0.00009402300000","ECCENTRICITY":"0.00010650","REV_AT_EPOCH":"17943","NORAD_CAT_ID":"45390","RCS_SIZE":"LARGE","ARG_OF_PERICENTER":"92.4215","EPOCH":"2023-06-14T16:49:39.257184","MEAN_MOTION":"15.06397172","APOAPSIS":"547.960","FILE":"3933215","COUNTRY_CODE":"US","RA_OF_ASC_NODE":"311.2536","SITE":"AFETR","PERIAPSIS":"546.485","TIME_SYSTEM":"UTC","OBJECT_NAME":"STARLINK-1284","LAUNCH_DATE":"2020-03-18","OBJECT_TYPE":"PAYLOAD","INCLINATION":"53.0540","CLASSIFICATION_TYPE":"U","ELEMENT_SET_NO":"999","EPHEMERIS_TYPE":"0","REF_FRAME":"TEME","PERIOD":"95.592","TLE_LINE1":"1 45390U 20019AG  23165.70114881  .00001119  00000-0  94023-4 0  9994","GP_ID":"233942450","OBJECT_ID":"2020-019AG","CENTER_NAME":"EARTH","DECAY_DATE":null},{"MEAN_MOTION_DOT":"-0.00001240","SEMIMAJOR_AXIS":"6925.373","TLE_LINE2":"2 45391  53.0541 310.8786 0001320  94.9792 265.1348 15.06392128179172","MEAN_ELEMENT_THEORY":"SGP4","BSTAR":"-0.00006436600000","ECCENTRICITY":"0.00013200","MEAN_ANOMALY":"265.1348","MEAN_MOTION_DDOT":"0.0000000000000","ARG_OF_PERICENTER":"94.9792","EPOCH":"2023-06-14T18:45:03.424896","COUNTRY_CODE":"US","MEAN_MOTION":"15.06392128","APOAPSIS":"548.152","FILE":"3933215","NORAD_CAT_ID":"45391","RCS_SIZE":"LARGE","REV_AT_EPOCH":"17917","CLASSIFICATION_TYPE":"U","ELEMENT_SET_NO":"999","INCLINATION":"53.0541","LAUNCH_DATE":"2020-03-18","OBJECT_TYPE":"PAYLOAD","REF_FRAME":"TEME","EPHEMERIS_TYPE":"0","SITE":"AFETR","RA_OF_ASC_NODE":"310.8786","TIME_SYSTEM":"UTC","OBJECT_NAME":"STARLINK-1289","PERIAPSIS":"546.324","TLE_LINE1":"1 45391U 20019AH  23165.78128964 -.00001240  00000-0 -64366-4 0  9994","PERIOD":"95.593","DECAY_DATE":null,"GP_ID":"233943201","OBJECT_ID":"2020-019AH","CENTER_NAME":"EARTH"},{"REV_AT_EPOCH":"130","NORAD_CAT_ID":"45392","RCS_SIZE":"LARGE","EPOCH":"2023-06-14T22:00:00.999936","ARG_OF_PERICENTER":"198.8030","APOAPSIS":"438.906","FILE":"3933215","MEAN_MOTION":"15.42762802","COUNTRY_CODE":"US","MEAN_MOTION_DDOT":"0.0000000000000","MEAN_ANOMALY":"126.4127","MEAN_ELEMENT_THEORY":"SGP4","TLE_LINE2":"2 45392  52.9806 251.6874 0001385 198.8030 126.4127 15.42762802  1308","SEMIMAJOR_AXIS":"6816.097","MEAN_MOTION_DOT":"0.00060975","ECCENTRICITY":"0.00013850","BSTAR":"0.00137140000000","PERIOD":"93.339","TLE_LINE1":"1 45392U 20019AJ  23165.91667824  .00060975  00000-0  13714-2 0  9990","CENTER_NAME":"EARTH","OBJECT_ID":"2020-019AJ","GP_ID":"233943452","DECAY_DATE":null,"RA_OF_ASC_NODE":"251.6874","SITE":"AFETR","PERIAPSIS":"437.018","OBJECT_NAME":"STARLINK-1290","TIME_SYSTEM":"UTC","LAUNCH_DATE":"2020-03-18","OBJECT_TYPE":"PAYLOAD","INCLINATION":"52.9806","CLASSIFICATION_TYPE":"U","ELEMENT_SET_NO":"999","EPHEMERIS_TYPE":"0","REF_FRAME":"TEME"},{"SITE":"AFETR","RA_OF_ASC_NODE":"310.7555","OBJECT_NAME":"STARLINK-1291","TIME_SYSTEM":"UTC","PERIAPSIS":"546.947","CLASSIFICATION_TYPE":"U","ELEMENT_SET_NO":"999","LAUNCH_DATE":"2020-03-18","INCLINATION":"53.0542","OBJECT_TYPE":"PAYLOAD","REF_FRAME":"TEME","EPHEMERIS_TYPE":"0","TLE_LINE1":"1 45393U 20019AK  23165.81172512  .00023450  00000-0  15888-2 0  9996","PERIOD":"95.593","DECAY_DATE":null,"CENTER_NAME":"EARTH","GP_ID":"233944202","OBJECT_ID":"2020-019AK","MEAN_ANOMALY":"256.0264","MEAN_MOTION_DDOT":"0.0000000000000","SEMIMAJOR_AXIS":"6925.409","MEAN_MOTION_DOT":"0.00023450","MEAN_ELEMENT_THEORY":"SGP4","TLE_LINE2":"2 45393  53.0542 310.7555 0000472 104.0777 256.0264 15.06380279179216","ECCENTRICITY":"0.00004720","BSTAR":"0.00158880000000","NORAD_CAT_ID":"45393","RCS_SIZE":"LARGE","REV_AT_EPOCH":"17921","EPOCH":"2023-06-14T19:28:53.050368","ARG_OF_PERICENTER":"104.0777","COUNTRY_CODE":"US","FILE":"3933215","APOAPSIS":"547.601","MEAN_MOTION":"15.06380279"},{"EPOCH":"2023-06-14T17:00:16.053696","ARG_OF_PERICENTER":"98.1406","FILE":"3933215","APOAPSIS":"548.022","MEAN_MOTION":"15.06392397","COUNTRY_CODE":"US","REV_AT_EPOCH":"17917","RCS_SIZE":"LARGE","NORAD_CAT_ID":"45394","MEAN_ELEMENT_THEORY":"SGP4","TLE_LINE2":"2 45394  53.0544 311.2181 0001133  98.1406 261.9711 15.06392397179178","SEMIMAJOR_AXIS":"6925.372","MEAN_MOTION_DOT":"0.00000302","ECCENTRICITY":"0.00011330","BSTAR":"0.00003913500000","MEAN_MOTION_DDOT":"0.0000000000000","MEAN_ANOMALY":"261.9711","PERIOD":"95.593","TLE_LINE1":"1 45394U 20019AL  23165.70851914  .00000302  00000-0  39135-4 0  9999","CENTER_NAME":"EARTH","GP_ID":"233942951","OBJECT_ID":"2020-019AL","DECAY_DATE":null,"OBJECT_TYPE":"PAYLOAD","LAUNCH_DATE":"2020-03-18","INCLINATION":"53.0544","ELEMENT_SET_NO":"999","CLASSIFICATION_TYPE":"U","EPHEMERIS_TYPE":"0","REF_FRAME":"TEME","RA_OF_ASC_NODE":"311.2181","SITE":"AFETR","PERIAPSIS":"546.452","OBJECT_NAME":"STARLINK-1292","TIME_SYSTEM":"UTC"},{"REF_FRAME":"TEME","EPHEMERIS_TYPE":"0","CLASSIFICATION_TYPE":"U","ELEMENT_SET_NO":"999","LAUNCH_DATE":"2020-03-18","INCLINATION":"53.0535","OBJECT_TYPE":"PAYLOAD","TIME_SYSTEM":"UTC","OBJECT_NAME":"STARLINK-1297","PERIAPSIS":"546.509","RA_OF_ASC_NODE":"311.3827","SITE":"AFETR","DECAY_DATE":null,"GP_ID":"233942701","OBJECT_ID":"2020-019AM","CENTER_NAME":"EARTH","TLE_LINE1":"1 45395U 20019AM  23165.67166368  .00005699  00000-0  40117-3 0  9993","PERIOD":"95.592","BSTAR":"0.00040117000000","ECCENTRICITY":"0.00010200","MEAN_MOTION_DOT":"0.00005699","SEMIMAJOR_AXIS":"6925.351","TLE_LINE2":"2 45395  53.0535 311.3827 0001020  99.1723 260.9382 15.06399312178610","MEAN_ELEMENT_THEORY":"SGP4","MEAN_ANOMALY":"260.9382","MEAN_MOTION_DDOT":"0.0000000000000","COUNTRY_CODE":"US","MEAN_MOTION":"15.06399312","FILE":"3933215","APOAPSIS":"547.922","ARG_OF_PERICENTER":"99.1723","EPOCH":"2023-06-14T16:07:11.741952","RCS_SIZE":"LARGE","NORAD_CAT_ID":"45395","REV_AT_EPOCH":"17861"}];
